{
  "type": "FeatureCollection",
  "features": [
    {
      "type": "Feature",
      "properties": {
        "norad_id": 38755,
        "name": "SPOT 6",
        "group": "resource",
        "lat": -68.95068557478432,
        "lon": 85.90977677630555,
        "alt_km": 705.891528031596,
        "timestamp": "2025-12-25T11:37:44.078591+00:00",
        "meta_object_name": "SPOT 6",
        "meta_object_id": "2012-047A",
        "meta_epoch": "2025-12-25T03:43:10.504416",
        "meta_mean_motion": 14.58542649,
        "meta_eccentricity": 0.0001242,
        "meta_inclination": 98.1553,
        "meta_ra_of_asc_node": 63.7096,
        "meta_arg_of_pericenter": 78.5049,
        "meta_mean_anomaly": 281.629,
        "meta_ephemeris_type": 0,
        "meta_classification_type": "U",
        "meta_norad_cat_id": 38755,
        "meta_element_set_no": 999,
        "meta_rev_at_epoch": 70768,
        "meta_bstar": 7.4836e-05,
        "meta_mean_motion_dot": 3.03e-06,
        "meta_mean_motion_ddot": 0,
        "tle_line1": "1 38755U 12047A   25359.15498269  .00000303  00000+0  74836-4 0  9997",
        "tle_line2": "2 38755  98.1553  63.7096 0001242  78.5049 281.6290 14.58542649707688"
      },
      "geometry": {
        "type": "Point",
        "coordinates": [
          85.90977677630555,
          -68.95068557478432
        ]
      }
    },
    {
      "type": "Feature",
      "properties": {
        "norad_id": 39019,
        "name": "PLEIADES 1B",
        "group": "resource",
        "lat": -8.015941334695766,
        "lon": -109.22605073318775,
        "alt_km": 701.9447448953251,
        "timestamp": "2025-12-25T11:37:44.078601+00:00",
        "meta_object_name": "PLEIADES 1B",
        "meta_object_id": "2012-068A",
        "meta_epoch": "2025-12-25T04:11:02.946624",
        "meta_mean_motion": 14.58563442,
        "meta_eccentricity": 0.0001148,
        "meta_inclination": 98.1778,
        "meta_ra_of_asc_node": 71.6291,
        "meta_arg_of_pericenter": 87.4167,
        "meta_mean_anomaly": 272.7164,
        "meta_ephemeris_type": 0,
        "meta_classification_type": "U",
        "meta_norad_cat_id": 39019,
        "meta_element_set_no": 999,
        "meta_rev_at_epoch": 69548,
        "meta_bstar": 6.698e-05,
        "meta_mean_motion_dot": 2.66e-06,
        "meta_mean_motion_ddot": 0,
        "tle_line1": "1 39019U 12068A   25359.17433966  .00000266  00000+0  66980-4 0  9998",
        "tle_line2": "2 39019  98.1778  71.6291 0001148  87.4167 272.7164 14.58563442695480"
      },
      "geometry": {
        "type": "Point",
        "coordinates": [
          -109.22605073318775,
          -8.015941334695766
        ]
      }
    },
    {
      "type": "Feature",
      "properties": {
        "norad_id": 39030,
        "name": "GOKTURK 2",
        "group": "resource",
        "lat": 82.30432925990029,
        "lon": 111.88234348626744,
        "alt_km": 635.7369052087579,
        "timestamp": "2025-12-25T11:37:44.078611+00:00",
        "meta_object_name": "GOKTURK 2",
        "meta_object_id": "2012-073A",
        "meta_epoch": "2025-12-25T04:42:44.309088",
        "meta_mean_motion": 14.75307813,
        "meta_eccentricity": 0.0001438,
        "meta_inclination": 97.6884,
        "meta_ra_of_asc_node": 200.237,
        "meta_arg_of_pericenter": 107.32,
        "meta_mean_anomaly": 252.8167,
        "meta_ephemeris_type": 0,
        "meta_classification_type": "U",
        "meta_norad_cat_id": 39030,
        "meta_element_set_no": 999,
        "meta_rev_at_epoch": 69885,
        "meta_bstar": 0.00012299,
        "meta_mean_motion_dot": 7.86e-06,
        "meta_mean_motion_ddot": 0,
        "tle_line1": "1 39030U 12073A   25359.19634617  .00000786  00000+0  12299-3 0  9995",
        "tle_line2": "2 39030  97.6884 200.2370 0001438 107.3200 252.8167 14.75307813698858"
      },
      "geometry": {
        "type": "Point",
        "coordinates": [
          111.88234348626744,
          82.30432925990029
        ]
      }
    },
    {
      "type": "Feature",
      "properties": {
        "norad_id": 39084,
        "name": "LANDSAT 8",
        "group": "resource",
        "lat": -66.81630843868393,
        "lon": 87.05920142197536,
        "alt_km": 710.4442638292039,
        "timestamp": "2025-12-25T11:37:44.078621+00:00",
        "meta_object_name": "LANDSAT 8",
        "meta_object_id": "2013-008A",
        "meta_epoch": "2025-12-25T03:42:04.904352",
        "meta_mean_motion": 14.57114699,
        "meta_eccentricity": 0.0001052,
        "meta_inclination": 98.2056,
        "meta_ra_of_asc_node": 67.0436,
        "meta_arg_of_pericenter": 93.2647,
        "meta_mean_anomaly": 266.8672,
        "meta_ephemeris_type": 0,
        "meta_classification_type": "U",
        "meta_norad_cat_id": 39084,
        "meta_element_set_no": 999,
        "meta_rev_at_epoch": 67255,
        "meta_bstar": 0.00010246,
        "meta_mean_motion_dot": 4.16e-06,
        "meta_mean_motion_ddot": 0,
        "tle_line1": "1 39084U 13008A   25359.15422343  .00000416  00000+0  10246-3 0  9990",
        "tle_line2": "2 39084  98.2056  67.0436 0001052  93.2647 266.8672 14.57114699672550"
      },
      "geometry": {
        "type": "Point",
        "coordinates": [
          87.05920142197536,
          -66.81630843868393
        ]
      }
    },
    {
      "type": "Feature",
      "properties": {
        "norad_id": 39086,
        "name": "SARAL",
        "group": "resource",
        "lat": -60.87689983674496,
        "lon": -12.418254740377614,
        "alt_km": 791.6079964415603,
        "timestamp": "2025-12-25T11:37:44.078630+00:00",
        "meta_object_name": "SARAL",
        "meta_object_id": "2013-009A",
        "meta_epoch": "2025-12-25T03:47:55.803264",
        "meta_mean_motion": 14.3276122,
        "meta_eccentricity": 0.0002959,
        "meta_inclination": 98.5503,
        "meta_ra_of_asc_node": 182.9266,
        "meta_arg_of_pericenter": 85.2941,
        "meta_mean_anomaly": 274.8581,
        "meta_ephemeris_type": 0,
        "meta_classification_type": "U",
        "meta_norad_cat_id": 39086,
        "meta_element_set_no": 999,
        "meta_rev_at_epoch": 67068,
        "meta_bstar": 6.1038e-05,
        "meta_mean_motion_dot": 1.23e-06,
        "meta_mean_motion_ddot": 0,
        "tle_line1": "1 39086U 13009A   25359.15828476  .00000123  00000+0  61038-4 0  9991",
        "tle_line2": "2 39086  98.5503 182.9266 0002959  85.2941 274.8581 14.32761220670686"
      },
      "geometry": {
        "type": "Point",
        "coordinates": [
          -12.418254740377614,
          -60.87689983674496
        ]
      }
    },
    {
      "type": "Feature",
      "properties": {
        "norad_id": 39150,
        "name": "GAOFEN-1",
        "group": "resource",
        "lat": -43.63603823234083,
        "lon": -117.72116340743918,
        "alt_km": 653.4819073835579,
        "timestamp": "2025-12-25T11:37:44.078640+00:00",
        "meta_object_name": "GAOFEN-1",
        "meta_object_id": "2013-018A",
        "meta_epoch": "2025-12-25T04:06:47.059200",
        "meta_mean_motion": 14.76501705,
        "meta_eccentricity": 0.001853,
        "meta_inclination": 97.931,
        "meta_ra_of_asc_node": 69.6098,
        "meta_arg_of_pericenter": 105.4818,
        "meta_mean_anomaly": 254.844,
        "meta_ephemeris_type": 0,
        "meta_classification_type": "U",
        "meta_norad_cat_id": 39150,
        "meta_element_set_no": 999,
        "meta_rev_at_epoch": 68256,
        "meta_bstar": 0.00016233,
        "meta_mean_motion_dot": 1.083e-05,
        "meta_mean_motion_ddot": 0,
        "tle_line1": "1 39150U 13018A   25359.17137800  .00001083  00000+0  16233-3 0  9991",
        "tle_line2": "2 39150  97.9310  69.6098 0018530 105.4818 254.8440 14.76501705682561"
      },
      "geometry": {
        "type": "Point",
        "coordinates": [
          -117.72116340743918,
          -43.63603823234083
        ]
      }
    },
    {
      "type": "Feature",
      "properties": {
        "norad_id": 39160,
        "name": "VNREDSAT 1",
        "group": "resource",
        "lat": 63.22483029626904,
        "lon": -109.64155167588756,
        "alt_km": 670.4032185504684,
        "timestamp": "2025-12-25T11:37:44.078650+00:00",
        "meta_object_name": "VNREDSAT 1",
        "meta_object_id": "2013-021B",
        "meta_epoch": "2025-12-25T04:32:45.699648",
        "meta_mean_motion": 14.64940198,
        "meta_eccentricity": 0.0001171,
        "meta_inclination": 97.9352,
        "meta_ra_of_asc_node": 54.027,
        "meta_arg_of_pericenter": 84.4255,
        "meta_mean_anomaly": 275.7082,
        "meta_ephemeris_type": 0,
        "meta_classification_type": "U",
        "meta_norad_cat_id": 39160,
        "meta_element_set_no": 999,
        "meta_rev_at_epoch": 67481,
        "meta_bstar": 0.00010905,
        "meta_mean_motion_dot": 5.38e-06,
        "meta_mean_motion_ddot": 0,
        "tle_line1": "1 39160U 13021B   25359.18941782  .00000538  00000+0  10905-3 0  9993",
        "tle_line2": "2 39160  97.9352  54.0270 0001171  84.4255 275.7082 14.64940198674815"
      },
      "geometry": {
        "type": "Point",
        "coordinates": [
          -109.64155167588756,
          63.22483029626904
        ]
      }
    }
  ]
}